{"type": "FeatureCollection", "features": [ {"type": "Feature", "properties": {"norad_id": 66979, "name": "STARLINK-36107", "group": "last-30-days", "lat": 8.080919341923021, "lon": 120.99749739365853, "alt_km": 340.63686803683504, "timestamp": "2025-12-21T16:47:53.452019+00:00", "meta": {"OBJECT_NAME": "STARLINK-36107", "OBJECT_ID": "2025-288W", "EPOCH": "2025-12-21T12:00:02.000160", "MEAN_MOTION": 15.76680716, "ECCENTRICITY": 0.0001324, "INCLINATION": 43.0009, "RA_OF_ASC_NODE": 113.449, "ARG_OF_PERICENTER": 265.0617, "MEAN_ANOMALY": 51.1126, "EPHEMERIS_TYPE": 0, "CLASSIFICATION_TYPE": "U", "NORAD_CAT_ID": 66979, "ELEMENT_SET_NO": 999, "REV_AT_EPOCH": 323, "BSTAR": -0.010477, "MEAN_MOTION_DOT": -0.01519511, "MEAN_MOTION_DDOT": 0}, "tle": {"line1": "1 66979U 25288W   25355.50002315 -.01519511  00000+0 -10477-1 0  9992", "line2": "2 66979  43.0009 113.4490 0001324 265.0617  51.1126 15.76680716  3235"}}, "geometry": {"type": "Point", "coordinates": [120.99749739365853, 8.080919341923021]}}, {"type": "Feature", "properties": {"norad_id": 66980, "name": "STARLINK-36086", "group": "last-30-days", "lat": 9.418625215834297, "lon": 122.4819685993792, "alt_km": 340.7443107267127, "timestamp": "2025-12-21T16:47:53.452029+00:00", "meta": {"OBJECT_NAME": "STARLINK-36086", "OBJECT_ID": "2025-288X", "EPOCH": "2025-12-21T12:00:02.000160", "MEAN_MOTION": 15.76611873, "ECCENTRICITY": 0.0001397, "INCLINATION": 43.0008, "RA_OF_ASC_NODE": 113.4432, "ARG_OF_PERICENTER": 262.3348, "MEAN_ANOMALY": 55.8786, "EPHEMERIS_TYPE": 0, "CLASSIFICATION_TYPE": "U", "NORAD_CAT_ID": 66980, "ELEMENT_SET_NO": 999, "REV_AT_EPOCH": 323, "BSTAR": -0.010555, "MEAN_MOTION_DOT": -0.01525277, "MEAN_MOTION_DDOT": 0}, "tle": {"line1": "1 66980U 25288X   25355.50002315 -.01525277  00000+0 -10555-1 0  9997", "line2": "2 66980  43.0008 113.4432 0001397 262.3348  55.8786 15.76611873  3234"}}, "geometry": {"type": "Point", "coordinates": [122.4819685993792, 9.418625215834297]}}, {"type": "Feature", "properties": {"norad_id": 66981, "name": "STARLINK-36142", "group": "last-30-days", "lat": 10.734908015988754, "lon": 123.96166349705386, "alt_km": 340.67492795060843, "timestamp": "2025-12-21T16:47:53.452041+00:00", "meta": {"OBJECT_NAME": "STARLINK-36142", "OBJECT_ID": "2025-288Y", "EPOCH": "2025-12-21T12:00:02.000160", "MEAN_MOTION": 15.76571763, "ECCENTRICITY": 0.0001793, "INCLINATION": 43.0008, "RA_OF_ASC_NODE": 113.4383, "ARG_OF_PERICENTER": 269.6084, "MEAN_ANOMALY": 50.6004, "EPHEMERIS_TYPE": 0, "CLASSIFICATION_TYPE": "U", "NORAD_CAT_ID": 66981, "ELEMENT_SET_NO": 999, "REV_AT_EPOCH": 323, "BSTAR": -0.010811, "MEAN_MOTION_DOT": -0.01555501, "MEAN_MOTION_DDOT": 0}, "tle": {"line1": "1 66981U 25288Y   25355.50002315 -.01555501  00000+0 -10811-1 0  9996", "line2": "2 66981  43.0008 113.4383 0001793 269.6084  50.6004 15.76571763  3236"}}, "geometry": {"type": "Point", "coordinates": [123.96166349705386, 10.734908015988754]}}, {"type": "Feature", "properties": {"norad_id": 66982, "name": "STARLINK-36113", "group": "last-30-days", "lat": 12.04344798336428, "lon": 125.45303251077648, "alt_km": 340.86184276071344, "timestamp": "2025-12-21T16:47:53.452051+00:00", "meta": {"OBJECT_NAME": "STARLINK-36113", "OBJECT_ID": "2025-288Z", "EPOCH": "2025-12-21T12:00:02.000160", "MEAN_MOTION": 15.7651402, "ECCENTRICITY": 0.0001466, "INCLINATION": 43.0007, "RA_OF_ASC_NODE": 113.4328, "ARG_OF_PERICENTER": 256.5159, "MEAN_ANOMALY": 65.7047, "EPHEMERIS_TYPE": 0, "CLASSIFICATION_TYPE": "U", "NORAD_CAT_ID": 66982, "ELEMENT_SET_NO": 999, "REV_AT_EPOCH": 323, "BSTAR": -0.01082, "MEAN_MOTION_DOT": -0.01552852, "MEAN_MOTION_DDOT": 0}, "tle": {"line1": "1 66982U 25288Z   25355.50002315 -.01552852  00000+0 -10820-1 0  9993", "line2": "2 66982  43.0007 113.4328 0001466 256.5159  65.7047 15.76514020  3237"}}, "geometry": {"type": "Point", "coordinates": [125.45303251077648, 12.04344798336428]}}, {"type": "Feature", "properties": {"norad_id": 66983, "name": "STARLINK-36145", "group": "last-30-days", "lat": 14.638801928674873, "lon": 128.48668373849097, "alt_km": 340.4013243956979, "timestamp": "2025-12-21T16:47:53.452061+00:00", "meta": {"OBJECT_NAME": "STARLINK-36145", "OBJECT_ID": "2025-288AA", "EPOCH": "2025-12-21T12:00:02.000160", "MEAN_MOTION": 15.76387361, "ECCENTRICITY": 0.0001141, "INCLINATION": 43.0008, "RA_OF_ASC_NODE": 113.4232, "ARG_OF_PERICENTER": 279.189, "MEAN_ANOMALY": 47.0572, "EPHEMERIS_TYPE": 0, "CLASSIFICATION_TYPE": "U", "NORAD_CAT_ID": 66983, "ELEMENT_SET_NO": 999, "REV_AT_EPOCH": 323, "BSTAR": -0.010791, "MEAN_MOTION_DOT": -0.01541293, "MEAN_MOTION_DDOT": 0}, "tle": {"line1": "1 66983U 25288AA  25355.50002315 -.01541293  00000+0 -10791-1 0  9998", "line2": "2 66983  43.0008 113.4232 0001141 279.1890  47.0572 15.76387361  3238"}}, "geometry": {"type": "Point", "coordinates": [128.48668373849097, 14.638801928674873]}}, {"type": "Feature", "properties": {"norad_id": 66984, "name": "STARLINK-35591", "group": "last-30-days", "lat": 13.351704099480685, "lon": 126.96869115330958, "alt_km": 340.41586587230813, "timestamp": "2025-12-21T16:47:53.452071+00:00", "meta": {"OBJECT_NAME": "STARLINK-35591", "OBJECT_ID": "2025-288AB", "EPOCH": "2025-12-21T12:00:02.000160", "MEAN_MOTION": 15.76499314, "ECCENTRICITY": 0.0001003, "INCLINATION": 43.0008, "RA_OF_ASC_NODE": 113.428, "ARG_OF_PERICENTER": 274.5546, "MEAN_ANOMALY": 49.6694, "EPHEMERIS_TYPE": 0, "CLASSIFICATION_TYPE": "U", "NORAD_CAT_ID": 66984, "ELEMENT_SET_NO": 999, "REV_AT_EPOCH": 323, "BSTAR": -0.011396, "MEAN_MOTION_DOT": -0.01656072, "MEAN_MOTION_DDOT": 0}, "tle": {"line1": "1 66984U 25288AB  25355.50002315 -.01656072  00000+0 -11396-1 0  9993", "line2": "2 66984  43.0008 113.4280 0001003 274.5546  49.6694 15.76499314  3231"}}, "geometry": {"type": "Point", "coordinates": [126.96869115330958, 13.351704099480685]}}, {"type": "Feature", "properties": {"norad_id": 66985, "name": "STARLINK-36103", "group": "last-30-days", "lat": 15.921143152132236, "lon": 130.02841315916152, "alt_km": 340.8008009716468, "timestamp": "2025-12-21T16:47:53.452081+00:00", "meta": {"OBJECT_NAME": "STARLINK-36103", "OBJECT_ID": "2025-288AC", "EPOCH": "2025-12-21T12:00:02.000160", "MEAN_MOTION": 15.76283972, "ECCENTRICITY": 0.0001589, "INCLINATION": 43.0006, "RA_OF_ASC_NODE": 113.4177, "ARG_OF_PERICENTER": 266.6169, "MEAN_ANOMALY": 61.6591, "EPHEMERIS_TYPE": 0, "CLASSIFICATION_TYPE": "U", "NORAD_CAT_ID": 66985, "ELEMENT_SET_NO": 999, "REV_AT_EPOCH": 323, "BSTAR": -0.010506, "MEAN_MOTION_DOT": -0.01499767, "MEAN_MOTION_DDOT": 0}, "tle": {"line1": "1 66985U 25288AC  25355.50002315 -.01499767  00000+0 -10506-1 0  9992", "line2": "2 66985  43.0006 113.4177 0001589 266.6169  61.6591 15.76283972  3238"}}, "geometry": {"type": "Point", "coordinates": [130.02841315916152, 15.921143152132236]}}, {"type": "Feature", "properties": {"norad_id": 66986, "name": "STARLINK-36135", "group": "last-30-days", "lat": 17.184909435863005, "lon": 131.58052682785703, "alt_km": 340.705186197878, "timestamp": "2025-12-21T16:47:53.452091+00:00", "meta": {"OBJECT_NAME": "STARLINK-36135", "OBJECT_ID": "2025-288AD", "EPOCH": "2025-12-21T12:00:02.000160", "MEAN_MOTION": 15.76155004, "ECCENTRICITY": 0.0001265, "INCLINATION": 43.0004, "RA_OF_ASC_NODE": 113.412, "ARG_OF_PERICENTER": 268.8028, "MEAN_ANOMALY": 61.5034, "EPHEMERIS_TYPE": 0, "CLASSIFICATION_TYPE": "U", "NORAD_CAT_ID": 66986, "ELEMENT_SET_NO": 999, "REV_AT_EPOCH": 324, "BSTAR": -0.0096424, "MEAN_MOTION_DOT": -0.01383054, "MEAN_MOTION_DDOT": 0}, "tle": {"line1": "1 66986U 25288AD  25355.50002315 -.01383054  00000+0 -96424-2 0  9998", "line2": "2 66986  43.0004 113.4120 0001265 268.8028  61.5034 15.76155004  3240"}}, "geometry": {"type": "Point", "coordinates": [131.58052682785703, 17.184909435863005]}}, {"type": "Feature", "properties": {"norad_id": 66987, "name": "STARLINK-36147", "group": "last-30-days", "lat": 18.428759699964665, "lon": 133.1446677200819, "alt_km": 340.77453034305927, "timestamp": "2025-12-21T16:47:53.452100+00:00", "meta": {"OBJECT_NAME": "STARLINK-36147", "OBJECT_ID": "2025-288AE", "EPOCH": "2025-12-21T12:00:02.000160", "MEAN_MOTION": 15.76066857, "ECCENTRICITY": 0.0001448, "INCLINATION": 43.0007, "RA_OF_ASC_NODE": 113.4074, "ARG_OF_PERICENTER": 267.0509, "MEAN_ANOMALY": 65.2464, "EPHEMERIS_TYPE": 0, "CLASSIFICATION_TYPE": "U", "NORAD_CAT_ID": 66987, "ELEMENT_SET_NO": 999, "REV_AT_EPOCH": 324, "BSTAR": -0.009091, "MEAN_MOTION_DOT": -0.01307761, "MEAN_MOTION_DDOT": 0}, "tle": {"line1": "1 66987U 25288AE  25355.50002315 -.01307761  00000+0 -90910-2 0  9994", "line2": "2 66987  43.0007 113.4074 0001448 267.0509  65.2464 15.76066857  3245"}}, "geometry": {"type": "Point", "coordinates": [133.1446677200819, 18.428759699964665]}}, {"type": "Feature", "properties": {"norad_id": 66988, "name": "YAOGAN-47", "group": "last-30-days", "lat": 42.77734098506371, "lon": -112.13001770533387, "alt_km": 492.29534942766895, "timestamp": "2025-12-21T16:47:53.452110+00:00", "meta": {"OBJECT_NAME": "YAOGAN-47", "OBJECT_ID": "2025-289A", "EPOCH": "2025-12-20T02:21:43.539840", "MEAN_MOTION": 15.23243112, "ECCENTRICITY": 6.467e-05, "INCLINATION": 97.5265, "RA_OF_ASC_NODE": 59.2376, "ARG_OF_PERICENTER": 91.4531, "MEAN_ANOMALY": 268.678, "EPHEMERIS_TYPE": 0, "CLASSIFICATION_TYPE": "U", "NORAD_CAT_ID": 66988, "ELEMENT_SET_NO": 999, "REV_AT_EPOCH": 166, "BSTAR": 0.00010945697, "MEAN_MOTION_DOT": 2.52e-05, "MEAN_MOTION_DDOT": 0}, "tle": {"line1": "1 66988U 25289A   25354.09842060  .00002520  00000+0  10946-3 0  9992", "line2": "2 66988  97.5265  59.2376 0000646  91.4531 268.6780 15.23243112  1668"}}, "geometry": {"type": "Point", "coordinates": [-112.13001770533387, 42.77734098506371]}}]}